CCSDS_OMM_VERS,COMMENT,CREATION_DATE,ORIGINATOR,OBJECT_NAME,OBJECT_ID,CENTER_NAME,REF_FRAME,TIME_SYSTEM,MEAN_ELEMENT_THEORY,EPOCH,MEAN_MOTION,ECCENTRICITY,INCLINATION,RA_OF_ASC_NODE,ARG_OF_PERICENTER,MEAN_ANOMALY,EPHEMERIS_TYPE,CLASSIFICATION_TYPE,NORAD_CAT_ID,ELEMENT_SET_NO,REV_AT_EPOCH,BSTAR,MEAN_MOTION_DOT,MEAN_MOTION_DDOT,SEMIMAJOR_AXIS,PERIOD,APOAPSIS,PERIAPSIS,OBJECT_TYPE,RCS_SIZE,COUNTRY_CODE,LAUNCH_DATE,SITE,DECAY_DATE,FILE,GP_ID,TLE_LINE0,TLE_LINE1,TLE_LINE2
2,GENERATED VIA SPACE-TRACK.ORG API,2004-05-29T18:28:24,18 SPCS,SKYNET 4D,1998-002A,EARTH,TEME,UTC,SGP4,2003-08-27T01:16:13.867392,1.00276332,0.0002779,1.3148,14.1495,115.9652,262.7769,0,U,25134,999,2066,0.0,1.45e-06,0,42163.484,1436.031,35797.066,35773.632,PAYLOAD,LARGE,UK,1998-01-10,AFETR,,7490,6064011,0 SKYNET 4D,1 25134U 98002A   03239.05293828 +.00000145 +00000-0 +00000-0 0  9998,2 25134 001.3148 014.1495 0002779 115.9652 262.7769 01.00276332020669
2,GENERATED VIA SPACE-TRACK.ORG API,2004-08-17T16:14:21,18 SPCS,SKYNET 4D,1998-002A,EARTH,TEME,UTC,SGP4,2003-08-27T23:56:24.781056,1.00273816,0.0002447,1.3134,12.8734,190.9512,170.0436,0,U,25134,999,2067,0.0001,0.0,0,42164.189,1436.067,35796.372,35775.736,PAYLOAD,LARGE,UK,1998-01-10,AFETR,,36536,38412662,0 SKYNET 4D,1 25134U 98002A   03239.99750904  .00000000  00000-0  10000-3 0  9998,2 25134 001.3134 012.8734 0002447 190.9512 170.0436 01.00273816 20672
2,GENERATED VIA SPACE-TRACK.ORG API,2004-05-29T18:28:30,18 SPCS,SKYNET 4D,1998-002A,EARTH,TEME,UTC,SGP4,2003-08-28T01:38:54.030624,1.00276803,0.0002765,1.3154,14.164,115.9975,269.4151,0,U,25134,999,2067,0.0,1.44e-06,0,42163.352,1436.025,35796.875,35773.559,PAYLOAD,LARGE,UK,1998-01-10,AFETR,,7492,6070361,0 SKYNET 4D,1 25134U 98002A   03240.06868091 +.00000144 +00000-0 +00000-0 0  9990,2 25134 001.3154 014.1640 0002765 115.9975 269.4151 01.00276803020674
2,GENERATED VIA SPACE-TRACK.ORG API,2004-05-29T18:28:36,18 SPCS,SKYNET 4D,1998-002A,EARTH,TEME,UTC,SGP4,2003-08-28T23:43:49.073088,1.00277252,0.0002763,1.3156,14.1651,116.0263,241.5389,0,U,25134,999,2067,0.0,1.44e-06,0,42163.226,1436.018,35796.741,35773.441,PAYLOAD,LARGE,UK,1998-01-10,AFETR,,7494,6076659,0 SKYNET 4D,1 25134U 98002A   03240.98876242 +.00000144 +00000-0 +00000-0 0  9998,2 25134 001.3156 014.1651 0002763 116.0263 241.5389 01.00277252020671
2,GENERATED VIA SPACE-TRACK.ORG API,2004-05-29T18:29:30,18 SPCS,SKYNET 4D,1998-002A,EARTH,TEME,UTC,SGP4,2003-08-31T23:26:08.152800,1.00278694,0.0002772,1.3166,14.1341,116.1621,240.0245,0,U,25134,999,2070,0.0,1.43e-06,0,42162.822,1435.997,35796.374,35772.999,PAYLOAD,LARGE,UK,1998-01-10,AFETR,,7512,6095615,0 SKYNET 4D,1 25134U 98002A   03243.97648325 +.00000143 +00000-0 +00000-0 0  9998,2 25134 001.3166 014.1341 0002772 116.1621 240.0245 01.00278694020707
2,GENERATED VIA SPACE-TRACK.ORG API,2004-05-29T18:29:45,18 SPCS,SKYNET 4D,1998-002A,EARTH,TEME,UTC,SGP4,2003-09-01T23:29:08.143008,1.00279172,0.0002781,1.3168,14.1307,116.2402,241.7128,0,U,25134,999,2071,0.0,1.41e-06,0,42162.688,1435.991,35796.278,35772.827,PAYLOAD,LARGE,UK,1998-01-10,AFETR,,7517,6102099,0 SKYNET 4D,1 25134U 98002A   03244.97856647 +.00000141 +00000-0 +00000-0 0  9995,2 25134 001.3168 014.1307 0002781 116.2402 241.7128 01.00279172020710
2,GENERATED VIA SPACE-TRACK.ORG API,2004-05-29T18:32:33,18 SPCS,SKYNET 4D,1998-002A,EARTH,TEME,UTC,SGP4,2003-09-10T00:20:07.001087,1.00270711,0.0002538,1.3185,15.3697,110.3789,266.8896,0,U,25134,999,2080,0.0,1.29e-06,0,42165.06,1436.112,35797.626,35776.223,PAYLOAD,LARGE,UK,1998-01-10,AFETR,,7573,6156325,0 SKYNET 4D,1 25134U 98002A   03253.01396992 +.00000129 +00000-0 +00000-0 0  9998,2 25134 001.3185 015.3697 0002538 110.3789 266.8896 01.00270711020807
2,GENERATED VIA SPACE-TRACK.ORG API,2004-05-29T18:33:51,18 SPCS,SKYNET 4D,1998-002A,EARTH,TEME,UTC,SGP4,2003-09-12T01:47:11.551200,1.00268011,0.0003083,1.3157,15.8152,136.3805,264.2007,0,U,25134,999,2082,0.0,1.36e-06,0,42165.816,1436.15,35800.681,35774.682,PAYLOAD,LARGE,UK,1998-01-10,AFETR,,7599,6190085,0 SKYNET 4D,1 25134U 98002A   03255.07443925 +.00000136 +00000-0 +00000-0 0  9993,2 25134 001.3157 015.8152 0003083 136.3805 264.2007 01.00268011020828
2,GENERATED VIA SPACE-TRACK.ORG API,2004-05-29T18:34:12,18 SPCS,SKYNET 4D,1998-002A,EARTH,TEME,UTC,SGP4,2003-09-17T20:29:10.500864,1.00270949,0.0002607,1.3214,15.8383,152.8014,173.8936,0,U,25134,999,2087,0.0,1.5e-06,0,42164.993,1436.108,35797.85,35775.865,PAYLOAD,LARGE,UK,1998-01-10,AFETR,,7606,6211739,0 SKYNET 4D,1 25134U 98002A   03260.85359376 +.00000150 +00000-0 +00000-0 0  9997,2 25134 001.3214 015.8383 0002607 152.8014 173.8936 01.00270949020878
2,GENERATED VIA SPACE-TRACK.ORG API,2004-08-17T16:14:39,18 SPCS,SKYNET 4D,1998-002A,EARTH,TEME,UTC,SGP4,2003-09-17T20:29:10.500864,1.00270934,0.000273,1.3216,15.8571,147.9314,178.7471,0,U,25134,999,2087,0.0,1.51e-06,0,42164.997,1436.109,35798.373,35775.351,PAYLOAD,LARGE,UK,1998-01-10,AFETR,,36542,38452093,0 SKYNET 4D,1 25134U 98002A   03260.85359376  .00000151  00000-0  00000+0 0  9997,2 25134 001.3216 015.8571 0002730 147.9314 178.7471 01.00270934 20876
2,GENERATED VIA SPACE-TRACK.ORG API,2004-05-29T18:34:39,18 SPCS,SKYNET 4D,1998-002A,EARTH,TEME,UTC,SGP4,2003-09-21T00:12:50.001119,1.0027365,0.0002532,1.3253,16.6494,148.5768,236.3546,0,U,25134,999,2091,0.0,1.48e-06,0,42164.236,1436.07,35796.777,35775.425,PAYLOAD,LARGE,UK,1998-01-10,AFETR,,7615,6240385,0 SKYNET 4D,1 25134U 98002A   03264.00891205 +.00000148 +00000-0 +00000-0 0  9997,2 25134 001.3253 016.6494 0002532 148.5768 236.3546 01.00273650020917
2,GENERATED VIA SPACE-TRACK.ORG API,2004-05-29T18:34:51,18 SPCS,SKYNET 4D,1998-002A,EARTH,TEME,UTC,SGP4,2003-09-22T23:10:03.470015,1.00273823,0.0002182,1.3274,16.7195,156.8198,214.27,0,U,25134,999,2093,0.0,1.46e-06,0,42164.187,1436.067,35795.252,35776.852,PAYLOAD,LARGE,UK,1998-01-10,AFETR,,7619,6254801,0 SKYNET 4D,1 25134U 98002A   03265.96531794 +.00000146 +00000-0 +00000-0 0  9995,2 25134 001.3274 016.7195 0002182 156.8198 214.2700 01.00273823020930
2,GENERATED VIA SPACE-TRACK.ORG API,2004-05-29T18:35:03,18 SPCS,SKYNET 4D,1998-002A,EARTH,TEME,UTC,SGP4,2003-09-25T23:02:36.248928,1.00274896,0.0002012,1.3295,16.9076,177.4574,194.5438,0,U,25134,999,2096,0.0,1.46e-06,0,42163.886,1436.052,35794.235,35777.268,PAYLOAD,LARGE,UK,1998-01-10,AFETR,,7623,6269193,0 SKYNET 4D,1 25134U 98002A   03268.96014177 +.00000146 +00000-0 +00000-0 0  9999,2 25134 001.3295 016.9076 0002012 177.4574 194.5438 01.00274896020964
2,GENERATED VIA SPACE-TRACK.ORG API,2004-05-29T18:35:18,18 SPCS,SKYNET 4D,1998-002A,EARTH,TEME,UTC,SGP4,2003-09-28T23:11:09.828672,1.00276074,0.0002111,1.3317,17.0875,166.8507,210.1079,0,U,25134,999,2099,0.0,1.44e-06,0,42163.556,1436.035,35794.322,35776.52,PAYLOAD,LARGE,UK,1998-01-10,AFETR,,7628,6297969,0 SKYNET 4D,1 25134U 98002A   03271.96608598 +.00000144 +00000-0 +00000-0 0  9997,2 25134 001.3317 017.0875 0002111 166.8507 210.1079 01.00276074020995
2,GENERATED VIA SPACE-TRACK.ORG API,2004-05-29T18:35:30,18 SPCS,SKYNET 4D,1998-002A,EARTH,TEME,UTC,SGP4,2003-10-02T22:49:15.561119,1.00277977,0.0002159,1.333,17.0709,167.7547,207.7456,0,U,25134,999,2103,0.0,1.34e-06,0,42163.023,1436.008,35793.991,35775.785,PAYLOAD,LARGE,UK,1998-01-10,AFETR,,7632,6312305,0 SKYNET 4D,1 25134U 98002A   03275.95087455 +.00000134 +00000-0 +00000-0 0  9992,2 25134 001.3330 017.0709 0002159 167.7547 207.7456 01.00277977021032
2,GENERATED VIA SPACE-TRACK.ORG API,2004-08-17T16:14:54,18 SPCS,SKYNET 4D,1998-002A,EARTH,TEME,UTC,SGP4,2003-10-04T21:33:11.951135,1.00276274,0.0002692,1.3242,15.4379,220.0185,140.0492,0,U,25134,999,2105,0.0001,0.0,0,42163.5,1436.032,35796.715,35774.015,PAYLOAD,LARGE,UK,1998-01-10,AFETR,,36547,38498493,0 SKYNET 4D,1 25134U 98002A   03277.89805499  .00000000  00000-0  10000-3 0  9999,2 25134 001.3242 015.4379 0002692 220.0185 140.0492 01.00276274 21052
2,GENERATED VIA SPACE-TRACK.ORG API,2004-05-29T18:35:48,18 SPCS,SKYNET 4D,1998-002A,EARTH,TEME,UTC,SGP4,2003-10-04T22:16:08.341248,1.0027876,0.0002273,1.3363,17.3635,163.9251,204.9912,0,U,25134,999,2105,0.0,1.3e-06,0,42162.803,1435.997,35794.252,35775.085,PAYLOAD,LARGE,UK,1998-01-10,AFETR,,7638,6348252,0 SKYNET 4D,1 25134U 98002A   03277.92787432 +.00000130 +00000-0 +00000-0 0  9999,2 25134 001.3363 017.3635 0002273 163.9251 204.9912 01.00278760021055
2,GENERATED VIA SPACE-TRACK.ORG API,2004-05-29T18:35:51,18 SPCS,SKYNET 4D,1998-002A,EARTH,TEME,UTC,SGP4,2003-10-07T22:05:46.152384,1.002798,0.0002295,1.3347,17.6768,155.7883,213.2454,0,U,25134,999,2108,0.0,1.34e-06,0,42162.512,1435.982,35794.053,35774.7,PAYLOAD,LARGE,UK,1998-01-10,AFETR,,7639,6355490,0 SKYNET 4D,1 25134U 98002A   03280.92067306 +.00000134 +00000-0 +00000-0 0  9998,2 25134 001.3347 017.6768 0002295 155.7883 213.2454 01.00279800021084
2,GENERATED VIA SPACE-TRACK.ORG API,2004-05-29T18:36:00,18 SPCS,SKYNET 4D,1998-002A,EARTH,TEME,UTC,SGP4,2003-10-10T03:02:25.000799,1.00277799,0.0004641,1.3269,18.5226,236.6395,207.8653,0,U,25134,999,2110,0.0,1.43e-06,0,42163.073,1436.01,35804.505,35765.37,PAYLOAD,LARGE,UK,1998-01-10,AFETR,,7642,6369706,0 SKYNET 4D,1 25134U 98002A   03283.12667825 +.00000143 +00000-0 +00000-0 0  9995,2 25134 001.3269 018.5226 0004641 236.6395 207.8653 01.00277799021108
2,GENERATED VIA SPACE-TRACK.ORG API,2004-05-29T18:36:36,18 SPCS,SKYNET 4D,1998-002A,EARTH,TEME,UTC,SGP4,2003-10-15T23:23:38.102784,1.00269454,0.0003212,1.3406,18.7878,120.4774,274.7421,0,U,25134,999,2116,0.0,1.56e-06,0,42165.412,1436.13,35800.82,35773.733,PAYLOAD,LARGE,UK,1998-01-10,AFETR,,7654,6412828,0 SKYNET 4D,1 25134U 98002A   03288.97474656 +.00000156 +00000-0 +00000-0 0  9995,2 25134 001.3406 018.7878 0003212 120.4774 274.7421 01.00269454021161
